{
  "type": "FeatureCollection",
  "features": [
    {
      "type": "Feature",
      "properties": {
        "norad_id": 38867,
        "name": "INTELSAT 23 (IS-23)",
        "group": "intelsat",
        "lat": -0.003509908082395083,
        "lon": 16.28395427829468,
        "alt_km": 35786.21744145166,
        "timestamp": "2025-12-19T22:41:52.047171+00:00",
        "meta_object_name": "INTELSAT 23 (IS-23)",
        "meta_object_id": "2012-057A",
        "meta_epoch": "2025-12-19T18:08:46.360896",
        "meta_mean_motion": 1.00270282,
        "meta_eccentricity": 5.78e-05,
        "meta_inclination": 0.0148,
        "meta_ra_of_asc_node": 49.4556,
        "meta_arg_of_pericenter": 244.3667,
        "meta_mean_anomaly": 14.0058,
        "meta_ephemeris_type": 0,
        "meta_classification_type": "U",
        "meta_norad_cat_id": 38867,
        "meta_element_set_no": 999,
        "meta_rev_at_epoch": 4815,
        "meta_bstar": 0,
        "meta_mean_motion_dot": -2.6e-06,
        "meta_mean_motion_ddot": 0,
        "tle_line1": "1 38867U 12057A   25353.75609214 -.00000260  00000+0  00000+0 0  9996",
        "tle_line2": "2 38867   0.0148  49.4556 0000578 244.3667  14.0058  1.00270282 48150"
      },
      "geometry": {
        "type": "Point",
        "coordinates": [
          16.28395427829468,
          -0.003509908082395083
        ]
      }
    },
    {
      "type": "Feature",
      "properties": {
        "norad_id": 39360,
        "name": "FM-6",
        "group": "intelsat",
        "lat": -0.020140411398311974,
        "lon": -46.897450700307644,
        "alt_km": 35796.85849499298,
        "timestamp": "2025-12-19T22:41:52.047183+00:00",
        "meta_object_name": "FM-6",
        "meta_object_id": "2013-058A",
        "meta_epoch": "2025-12-19T11:11:49.081920",
        "meta_mean_motion": 1.00267591,
        "meta_eccentricity": 0.0003051,
        "meta_inclination": 0.0115,
        "meta_ra_of_asc_node": 64.9452,
        "meta_arg_of_pericenter": 109.4337,
        "meta_mean_anomaly": 325.7334,
        "meta_ephemeris_type": 0,
        "meta_classification_type": "U",
        "meta_norad_cat_id": 39360,
        "meta_element_set_no": 999,
        "meta_rev_at_epoch": 4427,
        "meta_bstar": 0,
        "meta_mean_motion_dot": 8e-08,
        "meta_mean_motion_ddot": 0,
        "tle_line1": "1 39360U 13058A   25353.46654030  .00000008  00000+0  00000+0 0  9990",
        "tle_line2": "2 39360   0.0115  64.9452 0003051 109.4337 325.7334  1.00267591 44271"
      },
      "geometry": {
        "type": "Point",
        "coordinates": [
          -46.897450700307644,
          -0.020140411398311974
        ]
      }
    },
    {
      "type": "Feature",
      "properties": {
        "norad_id": 40271,
        "name": "INTELSAT 30 (IS-30)",
        "group": "intelsat",
        "lat": -0.02291767216140277,
        "lon": -25.8284172689682,
        "alt_km": 35790.24353946387,
        "timestamp": "2025-12-19T22:41:52.047195+00:00",
        "meta_object_name": "INTELSAT 30 (IS-30)",
        "meta_object_id": "2014-062A",
        "meta_epoch": "2025-12-19T11:39:10.878048",
        "meta_mean_motion": 1.00269542,
        "meta_eccentricity": 0.000169,
        "meta_inclination": 0.0142,
        "meta_ra_of_asc_node": 22.1087,
        "meta_arg_of_pericenter": 71.484,
        "meta_mean_anomaly": 74.4847,
        "meta_ephemeris_type": 0,
        "meta_classification_type": "U",
        "meta_norad_cat_id": 40271,
        "meta_element_set_no": 999,
        "meta_rev_at_epoch": 499,
        "meta_bstar": 0,
        "meta_mean_motion_dot": -1.26e-06,
        "meta_mean_motion_ddot": 0,
        "tle_line1": "1 40271U 14062A   25353.48554257 -.00000126  00000+0  00000+0 0  9993",
        "tle_line2": "2 40271   0.0142  22.1087 0001690  71.4840  74.4847  1.00269542  4998"
      },
      "geometry": {
        "type": "Point",
        "coordinates": [
          -25.8284172689682,
          -0.02291767216140277
        ]
      }
    },
    {
      "type": "Feature",
      "properties": {
        "norad_id": 40333,
        "name": "DIRECTV 14",
        "group": "intelsat",
        "lat": -0.010177758890422143,
        "lon": -29.97314283384473,
        "alt_km": 35788.25877641818,
        "timestamp": "2025-12-19T22:41:52.047206+00:00",
        "meta_object_name": "DIRECTV 14",
        "meta_object_id": "2014-078B",
        "meta_epoch": "2025-12-19T12:16:55.703712",
        "meta_mean_motion": 1.00270775,
        "meta_eccentricity": 4.5e-05,
        "meta_inclination": 0.0176,
        "meta_ra_of_asc_node": 337.2584,
        "meta_arg_of_pericenter": 166.3737,
        "meta_mean_anomaly": 29.7448,
        "meta_ephemeris_type": 0,
        "meta_classification_type": "U",
        "meta_norad_cat_id": 40333,
        "meta_element_set_no": 999,
        "meta_rev_at_epoch": 4024,
        "meta_bstar": 0,
        "meta_mean_motion_dot": -1.01e-06,
        "meta_mean_motion_ddot": 0,
        "tle_line1": "1 40333U 14078B   25353.51175583 -.00000101  00000+0  00000+0 0  9997",
        "tle_line2": "2 40333   0.0176 337.2584 0000450 166.3737  29.7448  1.00270775 40246"
      },
      "geometry": {
        "type": "Point",
        "coordinates": [
          -29.97314283384473,
          -0.010177758890422143
        ]
      }
    },
    {
      "type": "Feature",
      "properties": {
        "norad_id": 40663,
        "name": "DIRECTV 15",
        "group": "intelsat",
        "lat": -0.031972145918168195,
        "lon": -33.63807720649814,
        "alt_km": 35787.02736083844,
        "timestamp": "2025-12-19T22:41:52.047219+00:00",
        "meta_object_name": "DIRECTV 15",
        "meta_object_id": "2015-026A",
        "meta_epoch": "2025-12-19T16:12:00.693792",
        "meta_mean_motion": 1.00270099,
        "meta_eccentricity": 1.75e-05,
        "meta_inclination": 0.0258,
        "meta_ra_of_asc_node": 9.3201,
        "meta_arg_of_pericenter": 85.776,
        "meta_mean_anomaly": 133.5485,
        "meta_ephemeris_type": 0,
        "meta_classification_type": "U",
        "meta_norad_cat_id": 40663,
        "meta_element_set_no": 999,
        "meta_rev_at_epoch": 3866,
        "meta_bstar": 0,
        "meta_mean_motion_dot": 0,
        "meta_mean_motion_ddot": 0,
        "tle_line1": "1 40663U 15026A   25353.67500803  .00000000  00000+0  00000+0 0  9998",
        "tle_line2": "2 40663   0.0258   9.3201 0000175  85.7760 133.5485  1.00270099 38667"
      },
      "geometry": {
        "type": "Point",
        "coordinates": [
          -33.63807720649814,
          -0.031972145918168195
        ]
      }
    },
    {
      "type": "Feature",
      "properties": {
        "norad_id": 40664,
        "name": "SKY MEXICO-1",
        "group": "intelsat",
        "lat": 0.008785569377235762,
        "lon": -9.492747145442609,
        "alt_km": 35782.0512126743,
        "timestamp": "2025-12-19T22:41:52.047230+00:00",
        "meta_object_name": "SKY MEXICO-1",
        "meta_object_id": "2015-026B",
        "meta_epoch": "2025-12-19T09:43:10.843104",
        "meta_mean_motion": 1.00272289,
        "meta_eccentricity": 0.000231,
        "meta_inclination": 0.0116,
        "meta_ra_of_asc_node": 321.764,
        "meta_arg_of_pericenter": 322.6243,
        "meta_mean_anomaly": 230.8994,
        "meta_ephemeris_type": 0,
        "meta_classification_type": "U",
        "meta_norad_cat_id": 40664,
        "meta_element_set_no": 999,
        "meta_rev_at_epoch": 3865,
        "meta_bstar": 0,
        "meta_mean_motion_dot": -2.1e-06,
        "meta_mean_motion_ddot": 0,
        "tle_line1": "1 40664U 15026B   25353.40498661 -.00000210  00000+0  00000+0 0  9992",
        "tle_line2": "2 40664   0.0116 321.7640 0002310 322.6243 230.8994  1.00272289 38659"
      },
      "geometry": {
        "type": "Point",
        "coordinates": [
          -9.492747145442609,
          0.008785569377235762
        ]
      }
    },
    {
      "type": "Feature",
      "properties": {
        "norad_id": 40874,
        "name": "INTELSAT 34 (IS-34)",
        "group": "intelsat",
        "lat": 0.020112731586689435,
        "lon": 13.73351384990163,
        "alt_km": 35788.58857849173,
        "timestamp": "2025-12-19T22:41:52.047242+00:00",
        "meta_object_name": "INTELSAT 34 (IS-34)",
        "meta_object_id": "2015-039A",
        "meta_epoch": "2025-12-19T11:17:13.926048",
        "meta_mean_motion": 1.00271344,
        "meta_eccentricity": 7.39e-05,
        "meta_inclination": 0.0152,
        "meta_ra_of_asc_node": 339.5057,
        "meta_arg_of_pericenter": 173.0812,
        "meta_mean_anomaly": 49.536,
        "meta_ephemeris_type": 0,
        "meta_classification_type": "U",
        "meta_norad_cat_id": 40874,
        "meta_element_set_no": 999,
        "meta_rev_at_epoch": 3782,
        "meta_bstar": 0,
        "meta_mean_motion_dot": -2.61e-06,
        "meta_mean_motion_ddot": 0,
        "tle_line1": "1 40874U 15039A   25353.47030007 -.00000261  00000+0  00000+0 0  9998",
        "tle_line2": "2 40874   0.0152 339.5057 0000739 173.0812  49.5360  1.00271344 37825"
      },
      "geometry": {
        "type": "Point",
        "coordinates": [
          13.73351384990163,
          0.020112731586689435
        ]
      }
    }
  ]
}